     3.04           N: GNSS NAV DATA    C: BDS              RINEX VERSION / TYPE
cnvtToRINEX 3.14.0  convertToRINEX OPR  20250615 162114 UTC PGM / RUN BY / DATE 
----------------------------------------------------------- COMMENT             
BDSA   0.2980D-07 -0.8196D-07 -0.1192D-06  0.4768D-06       IONOSPHERIC CORR    
BDSB   0.1147D+06  0.6554D+05  0.8520D+06 -0.9830D+06       IONOSPHERIC CORR    
BDUT -0.372529029846D-08-0.195399252334D-13     14 1015     TIME SYSTEM CORR    
     4                                                      LEAP SECONDS        
                                                            END OF HEADER       
C 5 2025 06 15 15 00 00 0.421524629928D-03 0.248716602869D-10 0.000000000000D+00
     0.100000000000D+01 0.407875000000D+03-0.384694595503D-08-0.269294599912D+01
     0.135516747832D-04 0.782445305958D-03 0.731786713004D-05 0.649345310974D+04
     0.540000000000D+05-0.558793544769D-07 0.135922535155D+01 0.852160155773D-07
     0.742269843318D-01-0.224437500000D+03 0.146901888653D-01 0.502913805522D-08
    -0.380015829185D-09 0.300000000000D+01 0.101500000000D+04 0.000000000000D+00
     0.200000000000D+01 0.000000000000D+00 0.200000002670D-09-0.950000000000D-08
     0.540000000000D+05 0.000000000000D+00 0.000000000000D+00 0.000000000000D+00
